IRIDIUM 119             
1 42959U 17061E   25275.68086344  .00000019  00000+0 -38644-6 0  9995
2 42959  86.3966 132.9243 0002257  91.3734 268.7721 14.34217070417909
IRIDIUM 107             
1 42960U 17061F   25275.63012404  .00000252  00000+0  82917-4 0  9996
2 42960  86.3969 132.9654 0002598  84.8150 275.3343 14.34216869417906
IRIDIUM 132             
1 42961U 17061G   25275.70623338  .00000119  00000+0  35342-4 0  9991
2 42961  86.3962 132.9150 0002299  85.7707 274.3751 14.34217871417914
IRIDIUM 136             
1 42962U 17061H   25275.66817455  .00000486  00000+0  16645-3 0  9993
2 42962  86.3966 132.9360 0002312  89.1578 270.9883 14.34220056417920
IRIDIUM 139             
1 42963U 17061J   25275.67451961  .00000593  00000+0  20466-3 0  9996
2 42963  86.3966 132.9910 0002447  81.7933 278.3540 14.34214393417934
IRIDIUM 125             
1 42964U 17061K   25275.66183920  .00000641  00000+0  22186-3 0  9998
2 42964  86.3970 133.0531 0002673  90.9374 269.2128 14.34219592417941
IRIDIUM 135             
1 43070U 17083A   25275.70572873 -.00000032  00000+0 -18426-4 0  9994
2 43070  86.3924  69.6398 0001921  90.5849 269.5567 14.34217949407248
IRIDIUM 138             
1 43071U 17083B   25275.52179215  .00000171  00000+0  53887-4 0  9990
2 43071  86.3916  69.3736 0002258 102.4872 257.6577 14.34219136407201
